NORAD_CAT_ID,OBJECT_NAME,OBJECT_TYPE,EPOCH,MEAN_MOTION,ECCENTRICITY,INCLINATION,RA_OF_ASC_NODE,ARG_OF_PERICENTER,MEAN_ANOMALY,BSTAR,MEAN_MOTION_DOT,MEAN_MOTION_DDOT,TLE_LINE0,TLE_LINE1,TLE_LINE2,SEMIMAJOR_AXIS,PERIOD,APOGEE,PERIGEE,DECAYED
49147.0,STARLINK-3071,PAYLOAD,2022-07-29 14:39:02,14.96717274,0.0003071,70.0018,339.8767,261.1735,98.9076,9.4182e-05,9.87e-06,0.0,0 STARLINK-3071,1 49147U 21082T   22210.61044104  .00000987  00000-0  94182-4 0  9997,2 49147  70.0018 339.8767 0003071 261.1735  98.9076 14.96717274 49394,6955.185,96.211,579.186,574.914,0.0
49147.0,STARLINK-3071,PAYLOAD,2022-07-30 01:52:42,14.96717638,0.0003081,70.0018,338.7002,261.7785,98.3024,6.277600000000001e-05,6.27e-06,0.0,0 STARLINK-3071,1 49147U 21082T   22211.07826471  .00000627  00000-0  62776-4 0  9998,2 49147  70.0018 338.7002 0003081 261.7785  98.3024 14.96717638 49465,6955.183000000001,96.211,579.191,574.906,0.0
49147.0,STARLINK-3071,PAYLOAD,2022-07-30 17:55:06,14.96706427,0.0003086999999999,70.0018,337.0198,261.5153,98.5655,-0.0001127999999999,-1.382e-05,0.0,0 STARLINK-3071,1 49147U 21082T   22211.74659741 -.00001382  00000-0 -11280-3 0  9990,2 49147  70.0018 337.0198 0003087 261.5153  98.5655 14.96706427 50734,6955.218000000003,96.211,579.23,574.936,0.0
49147.0,STARLINK-3071,PAYLOAD,2022-07-31 08:21:14,14.96714147,0.0003147,70.0018,335.5061,259.7321,100.3483,-7.530300000000001e-05,-9.53e-06,0.0,0 STARLINK-3071,1 49147U 21082T   22212.34808093 -.00000953  00000-0 -75303-4 0  9993,2 49147  70.0018 335.5061 0003147 259.7321 100.3483 14.96714147 50828,6955.194,96.211,579.248,574.87,0.0
49147.0,STARLINK-3071,PAYLOAD,2022-07-31 14:46:11,14.96714377,0.0003148999999999,70.0019,334.834,259.9766,100.1037,-6.4746e-05,-8.33e-06,0.0,0 STARLINK-3071,1 49147U 21082T   22212.61540870 -.00000833  00000-0 -64746-4 0  9995,2 49147  70.0019 334.8340 0003149 259.9766 100.1037 14.96714377 49699,6955.194,96.211,579.249,574.868,0.0
49147.0,STARLINK-3071,PAYLOAD,2022-08-01 08:24:48,14.96709464,0.0003262,70.0019,332.9855,260.7927,99.2863,8.2695e-05,8.55e-06,0.0,0 STARLINK-3071,1 49147U 21082T   22213.35056052  .00000855  00000-0  82695-4 0  9996,2 49147  70.0019 332.9855 0003262 260.7927  99.2863 14.96709464 50973,6955.209,96.211,579.3430000000002,574.805,0.0
49147.0,STARLINK-3071,PAYLOAD,2022-08-01 14:49:45,14.96711693,0.0003273999999999,70.0019,332.3133,260.8548,99.224,7.377100000000001e-05,7.53e-06,0.0,0 STARLINK-3071,1 49147U 21082T   22213.61788822  .00000753  00000-0  73771-4 0  9994,2 49147  70.0019 332.3133 0003274 260.8548  99.2240 14.96711693 49849,6955.2019999999975,96.211,579.344,574.79,0.0
49147.0,STARLINK-3071,PAYLOAD,2022-08-02 11:40:51,14.96716529,0.0003266999999999,70.0018,330.1284,260.7204,99.3585,7.5217e-05,7.69e-06,0.0,0 STARLINK-3071,1 49147U 21082T   22214.48670150  .00000769  00000-0  75217-4 0  9998,2 49147  70.0018 330.1284 0003267 260.7204  99.3585 14.96716529 49971,6955.187,96.211,579.3240000000002,574.78,0.0
49147.0,STARLINK-3071,PAYLOAD,2022-08-03 11:44:25,14.96709644,0.0003206,70.0018,327.6074,261.1024,98.9771,-8.73e-05,-1.091e-05,0.0,0 STARLINK-3071,1 49147U 21082T   22215.48918658 -.00001091  00000-0 -87300-4 0  9994,2 49147  70.0018 327.6074 0003206 261.1024  98.9771 14.96709644 51297,6955.208000000001,96.211,579.303,574.8430000000002,0.0
49147.0,STARLINK-3071,PAYLOAD,2022-08-03 18:09:22,14.96710264,0.0003237,70.0017,326.935,260.7648,99.3144,-8.3488e-05,-1.047e-05,0.0,0 STARLINK-3071,1 49147U 21082T   22215.75651452 -.00001047  00000-0 -83488-4 0  9994,2 49147  70.0017 326.9350 0003237 260.7648  99.3144 14.96710264 50160,6955.206,96.211,579.323,574.82,0.0
49147.0,STARLINK-3071,PAYLOAD,2022-08-04 11:47:59,14.96713079,0.0003327,70.0014,325.086,261.5189,98.5592,-9.2812e-05,-1.154e-05,0.0,0 STARLINK-3071,1 49147U 21082T   22216.49166564 -.00001154  00000-0 -92812-4 0  9991,2 49147  70.0014 325.0860 0003327 261.5189  98.5592 14.96713079 50279,6955.198,96.211,579.377,574.749,0.0
49147.0,STARLINK-3071,PAYLOAD,2022-08-04 13:24:14,14.96712771,0.0003343,70.0014,324.9179,261.6956,98.3823,-9.3139e-05,-1.157e-05,0.0,0 STARLINK-3071,1 49147U 21082T   22216.55849793 -.00001157  00000-0 -93139-4 0  9996,2 49147  70.0014 324.9179 0003343 261.6956  98.3823 14.96712771 51455,6955.199000000001,96.211,579.389,574.738,0.0
49147.0,STARLINK-3071,PAYLOAD,2022-08-04 18:12:56,14.96716719,0.000339,70.0012,324.4135,262.9594,97.1179,-4.6759e-05,-6.27e-06,0.0,0 STARLINK-3071,1 49147U 21082T   22216.75899043 -.00000627  00000-0 -46759-4 0  9998,2 49147  70.0012 324.4135 0003390 262.9594  97.1179 14.96716719 50315,6955.186,96.211,579.409,574.694,0.0
49147.0,STARLINK-3071,PAYLOAD,2022-08-05 11:51:33,14.96710587,0.0003273,70.0015,322.5652,259.7761,100.3028,7.7732e-05,7.98e-06,0.0,0 STARLINK-3071,1 49147U 21082T   22217.49414216  .00000798  00000-0  77732-4 0  9997,2 49147  70.0015 322.5652 0003273 259.7761 100.3028 14.96710587 50420,6955.205,96.211,579.347,574.794,0.0
49147.0,STARLINK-3071,PAYLOAD,2022-08-05 16:40:16,14.96712704,0.0003256,70.0016,322.061,259.66700000000003,100.4121,9.6592e-05,1.014e-05,0.0,0 STARLINK-3071,1 49147U 21082T   22217.69463672  .00001014  00000-0  96592-4 0  9996,2 49147  70.0016 322.0610 0003256 259.6670 100.4121 14.96712704 51620,6955.199000000001,96.211,579.328,574.799,0.0
49147.0,STARLINK-3071,PAYLOAD,2022-08-06 13:31:21,14.96720318,0.0003301,70.0014,319.8762,259.643,100.4356,9.5995e-05,1.007e-05,0.0,0 STARLINK-3071,1 49147U 21082T   22218.56344699  .00001007  00000-0  95995-4 0  9998,2 49147  70.0014 319.8762 0003301 259.6430 100.4356 14.96720318 50589,6955.175,96.21,579.336,574.744,0.0
49147.0,STARLINK-3071,PAYLOAD,2022-08-07 10:22:27,14.96715271,0.0003281,70.0013,317.6913,259.6142,100.4646,-4.0444e-05,-5.54e-06,0.0,0 STARLINK-3071,1 49147U 21082T   22219.43226775 -.00000554  00000-0 -40444-4 0  9996,2 49147  70.0013 317.6913 0003281 259.6142 100.4646 14.96715271 51887,6955.191,96.211,579.3380000000002,574.774,0.0
49147.0,STARLINK-3071,PAYLOAD,2022-08-07 13:34:56,14.96714483,0.0003283999999999,70.0013,317.3551,259.5984,100.4804,-4.8292e-05,-6.44e-06,0.0,0 STARLINK-3071,1 49147U 21082T   22219.56593239 -.00000644  00000-0 -48292-4 0  9991,2 49147  70.0013 317.3551 0003284 259.5984 100.4804 14.96714483 50731,6955.193,96.211,579.342,574.774,0.0
49147.0,STARLINK-3071,PAYLOAD,2022-08-07 16:47:25,14.96714533,0.0003283999999999,70.0013,317.019,259.6421,100.4367,-4.6739e-05,-6.27e-06,0.0,0 STARLINK-3071,1 49147U 21082T   22219.69959628 -.00000627  00000-0 -46739-4 0  9998,2 49147  70.0013 317.0190 0003284 259.6421 100.4367 14.96714533 50756,6955.193,96.211,579.342,574.774,0.0
49147.0,STARLINK-3071,PAYLOAD,2022-08-08 12:02:15,14.96724453,0.0003243999999999,70.0013,315.0022,259.5655,100.5138,1.7232e-05,1.06e-06,0.0,0 STARLINK-3071,1 49147U 21082T   22220.50157005  .00000106  00000-0  17232-4 0  9995,2 49147  70.0013 315.0022 0003244 259.5655 100.5138 14.96724453 52045,6955.1619999999975,96.21,579.284,574.771,0.0
49147.0,STARLINK-3071,PAYLOAD,2022-08-09 05:40:52,14.96721603,0.000319,70.0013,313.1536,258.964,101.116,0.00012287,1.315e-05,0.0,0 STARLINK-3071,1 49147U 21082T   22221.23671617  .00001315  00000-0  12287-3 0  9993,2 49147  70.0013 313.1536 0003190 258.9640 101.1160 14.96721603 50988,6955.170999999999,96.21,579.255,574.817,0.0
49147.0,STARLINK-3071,PAYLOAD,2022-08-09 12:05:49,14.96719623,0.0003197,70.0012,312.4812,261.0248,99.0548,8.7501e-05,9.1e-06,0.0,0 STARLINK-3071,1 49147U 21082T   22221.50404587  .00000910  00000-0  87501-4 0  9995,2 49147  70.0012 312.4812 0003197 261.0248  99.0548 14.96719623 51022,6955.177,96.21,579.266,574.819,0.0
49147.0,STARLINK-3071,PAYLOAD,2022-08-10 05:44:27,14.96712894,0.0003142,70.001,310.6319,255.3432,104.7378,-0.00016832,-2.017e-05,0.0,0 STARLINK-3071,1 49147U 21082T   22222.23920931 -.00002017  00000-0 -16832-3 0  9992,2 49147  70.0010 310.6319 0003142 255.3432 104.7378 14.96712894 52303,6955.198,96.211,579.248,574.878,0.0
49147.0,STARLINK-3071,PAYLOAD,2022-08-11 04:11:47,14.96715118,0.00033,70.0008,308.2794,258.9586,101.1201,-3.1256e-05,-4.49e-06,0.0,0 STARLINK-3071,1 49147U 21082T   22223.17485230 -.00000449  00000-0 -31256-4 0  9999,2 49147  70.0008 308.2794 0003300 258.9586 101.1201 14.96715118 52448,6955.191,96.211,579.351,574.761,0.0
49147.0,STARLINK-3071,PAYLOAD,2022-08-11 13:49:13,14.96716296,0.0003532999999999,70.0,307.2706,261.4429,98.6329,-0.00010577,-1.302e-05,0.0,0 STARLINK-3071,1 49147U 21082T   22223.57584508 -.00001302  00000-0 -10577-3 0  9992,2 49147  70.0000 307.2706 0003533 261.4429  98.6329 14.96716296 51331,6955.188,96.211,579.51,574.595,0.0
49147.0,STARLINK-3071,PAYLOAD,2022-08-11 15:25:28,14.9670087,0.0003049,70.0014,307.1027,253.4817,106.6006,-0.00011949,-1.458e-05,0.0,0 STARLINK-3071,1 49147U 21082T   22223.64268749 -.00001458  00000-0 -11949-3 0  9992,2 49147  70.0014 307.1027 0003049 253.4817 106.6006 14.96700870 52519,6955.235,96.212,579.221,574.98,0.0
49147.0,STARLINK-3071,PAYLOAD,2022-08-12 12:16:34,14.96705219,0.0002753999999999,70.0011,304.9176,247.9018,112.1848,-3.7794e-05,-5.24e-06,0.0,0 STARLINK-3071,1 49147U 21082T   22224.51150527 -.00000524  00000-0 -37794-4 0  9993,2 49147  70.0011 304.9176 0002754 247.9018 112.1848 14.96705219 52641,6955.222,96.211,579.002,575.1709999999998,0.0
49147.0,STARLINK-3071,PAYLOAD,2022-08-12 13:52:48,14.96706717,0.0002993,70.0011,304.7497,253.3266,106.7564,-2.3031e-05,-3.55e-06,0.0,0 STARLINK-3071,1 49147U 21082T   22224.57833635 -.00000355  00000-0 -23031-4 0  9998,2 49147  70.0011 304.7497 0002993 253.3266 106.7564 14.96706717 51485,6955.217,96.211,579.164,575.001,0.0
49147.0,STARLINK-3071,PAYLOAD,2022-08-12 15:29:02,14.967071300000002,0.0003033,70.0011,304.5816,253.9755,106.1069,-1.8351e-05,-3.02e-06,0.0,0 STARLINK-3071,1 49147U 21082T   22224.64516834 -.00000302  00000-0 -18351-4 0  9996,2 49147  70.0011 304.5816 0003033 253.9755 106.1069 14.96707130 51498,6955.215999999999,96.211,579.191,574.971,0.0
